{
  "type": "FeatureCollection",
  "name": "Vanuatu Provinces",
  "crs": {
    "type": "name",
    "properties": { "name": "urn:ogc:def:crs:OGC:1.3:CRS84" }
  },
  "features": [
    {
      "type": "Feature",
      "properties": {
        "name": "Torba",
        "code": "TOB",
        "capital": "Sola",
        "islands": ["Vanua Lava", "Gaua", "Mota", "Mota Lava", "Torres Islands"]
      },
      "geometry": {
        "type": "Polygon",
        "coordinates": [[[166.5, -13.2], [167.8, -13.2], [167.8, -14.5], [166.5, -14.5], [166.5, -13.2]]]
      }
    },
    {
      "type": "Feature",
      "properties": {
        "name": "Sanma",
        "code": "SAM",
        "capital": "Luganville",
        "islands": ["Espiritu Santo", "Malo", "Aore"]
      },
      "geometry": {
        "type": "Polygon",
        "coordinates": [[[166.5, -14.5], [167.5, -14.5], [167.5, -15.8], [166.5, -15.8], [166.5, -14.5]]]
      }
    },
    {
      "type": "Feature",
      "properties": {
        "name": "Penama",
        "code": "PEN",
        "capital": "Saratamata",
        "islands": ["Ambae", "Maewo", "Pentecost"]
      },
      "geometry": {
        "type": "Polygon",
        "coordinates": [[[167.5, -14.8], [168.5, -14.8], [168.5, -16.5], [167.5, -16.5], [167.5, -14.8]]]
      }
    },
    {
      "type": "Feature",
      "properties": {
        "name": "Malampa",
        "code": "MAP",
        "capital": "Lakatoro",
        "islands": ["Malakula", "Ambrym", "Paama"]
      },
      "geometry": {
        "type": "Polygon",
        "coordinates": [[[167.0, -15.8], [168.2, -15.8], [168.2, -17.2], [167.0, -17.2], [167.0, -15.8]]]
      }
    },
    {
      "type": "Feature",
      "properties": {
        "name": "Shefa",
        "code": "SEE",
        "capital": "Port Vila",
        "islands": ["Efate", "Epi", "Shepherd Islands"]
      },
      "geometry": {
        "type": "Polygon",
        "coordinates": [[[167.8, -17.2], [168.8, -17.2], [168.8, -18.5], [167.8, -18.5], [167.8, -17.2]]]
      }
    },
    {
      "type": "Feature",
      "properties": {
        "name": "Tafea",
        "code": "TAE",
        "capital": "Isangel",
        "islands": ["Tanna", "Erromango", "Aniwa", "Futuna", "Aneityum"]
      },
      "geometry": {
        "type": "Polygon",
        "coordinates": [[[168.8, -18.5], [170.2, -18.5], [170.2, -20.5], [168.8, -20.5], [168.8, -18.5]]]
      }
    }
  ]
}
